{
  "type": "FeatureCollection",
  "features": [
    {
      "type": "Feature",
      "properties": {
        "name": "Namakwa",
        "code": "DC6",
        "fill": "#E8C84A",
        "district": "Namakwa",
        "legendOrder": 3
      },
      "geometry": {
        "type": "Polygon",
        "coordinates": [
          [
            [
              16.45,
              -28.55
            ],
            [
              17.1,
              -28.25
            ],
            [
              18.05,
              -28.2
            ],
            [
              18.95,
              -28.45
            ],
            [
              19.55,
              -28.95
            ],
            [
              20.1,
              -29.55
            ],
            [
              20.65,
              -30.25
            ],
            [
              21.05,
              -30.95
            ],
            [
              21.15,
              -31.65
            ],
            [
              20.85,
              -32.35
            ],
            [
              20.15,
              -32.55
            ],
            [
              19.15,
              -32.45
            ],
            [
              18.25,
              -32.05
            ],
            [
              17.35,
              -31.35
            ],
            [
              16.75,
              -30.45
            ],
            [
              16.4,
              -29.55
            ],
            [
              16.35,
              -28.85
            ],
            [
              16.45,
              -28.55
            ]
          ]
        ]
      }
    },
    {
      "type": "Feature",
      "properties": {
        "name": "ZF Mgcawu",
        "code": "DC8",
        "fill": "#7A9EAD",
        "district": "ZF Mgcawu",
        "legendOrder": 5
      },
      "geometry": {
        "type": "Polygon",
        "coordinates": [
          [
            [
              19,
              -26.55
            ],
            [
              20.4,
              -26.4
            ],
            [
              21.7,
              -26.5
            ],
            [
              22.65,
              -26.85
            ],
            [
              23.45,
              -27.35
            ],
            [
              23.7,
              -27.95
            ],
            [
              23.45,
              -28.55
            ],
            [
              22.75,
              -29.05
            ],
            [
              21.85,
              -29.4
            ],
            [
              20.85,
              -29.55
            ],
            [
              19.95,
              -29.35
            ],
            [
              19.15,
              -28.85
            ],
            [
              18.75,
              -28.15
            ],
            [
              18.65,
              -27.35
            ],
            [
              18.85,
              -26.75
            ],
            [
              19,
              -26.55
            ]
          ]
        ]
      }
    },
    {
      "type": "Feature",
      "properties": {
        "name": "John Taolo Gaetsewe",
        "code": "DC45",
        "fill": "#8EC4E8",
        "district": "John Taolo Gaetsewe",
        "legendOrder": 2
      },
      "geometry": {
        "type": "Polygon",
        "coordinates": [
          [
            [
              21.55,
              -26.55
            ],
            [
              22.55,
              -26.4
            ],
            [
              23.55,
              -26.45
            ],
            [
              24.15,
              -26.7
            ],
            [
              24.25,
              -27.15
            ],
            [
              24,
              -27.65
            ],
            [
              23.45,
              -28.05
            ],
            [
              22.75,
              -28.2
            ],
            [
              22.1,
              -28.05
            ],
            [
              21.6,
              -27.55
            ],
            [
              21.45,
              -27
            ],
            [
              21.55,
              -26.55
            ]
          ]
        ]
      }
    },
    {
      "type": "Feature",
      "properties": {
        "name": "Frances Baard",
        "code": "DC9",
        "fill": "#C9B3E0",
        "district": "Frances Baard",
        "legendOrder": 1
      },
      "geometry": {
        "type": "Polygon",
        "coordinates": [
          [
            [
              24.05,
              -27.55
            ],
            [
              24.65,
              -27.45
            ],
            [
              25.15,
              -27.55
            ],
            [
              25.4,
              -27.9
            ],
            [
              25.45,
              -28.35
            ],
            [
              25.25,
              -28.8
            ],
            [
              24.9,
              -29.1
            ],
            [
              24.4,
              -29.2
            ],
            [
              24,
              -28.95
            ],
            [
              23.85,
              -28.5
            ],
            [
              23.9,
              -28
            ],
            [
              24.05,
              -27.7
            ],
            [
              24.05,
              -27.55
            ]
          ]
        ]
      }
    },
    {
      "type": "Feature",
      "properties": {
        "name": "Pixley ka Seme",
        "code": "DC7",
        "fill": "#A8D08D",
        "district": "Pixley ka Seme",
        "legendOrder": 4
      },
      "geometry": {
        "type": "Polygon",
        "coordinates": [
          [
            [
              21.1,
              -29.5
            ],
            [
              22.15,
              -29.35
            ],
            [
              23.25,
              -29.25
            ],
            [
              24.2,
              -29.3
            ],
            [
              24.95,
              -29.5
            ],
            [
              25.4,
              -29.85
            ],
            [
              25.5,
              -30.5
            ],
            [
              25.35,
              -31.25
            ],
            [
              24.75,
              -31.85
            ],
            [
              23.9,
              -32.3
            ],
            [
              22.95,
              -32.4
            ],
            [
              22,
              -32.25
            ],
            [
              21.3,
              -31.75
            ],
            [
              20.95,
              -31.05
            ],
            [
              20.85,
              -30.35
            ],
            [
              20.95,
              -29.8
            ],
            [
              21.1,
              -29.5
            ]
          ]
        ]
      }
    }
  ]
}