{
  "type": "FeatureCollection",
  "features": [
    {
      "type": "Feature",
      "properties": {
        "name": "Northern Cape",
        "code": "NC",
        "fill": "#0f766e"
      },
      "geometry": {
        "type": "Polygon",
        "coordinates": [
          [
            [
              16.35,
              -32.55
            ],
            [
              25.5,
              -32.55
            ],
            [
              25.5,
              -26.4
            ],
            [
              16.35,
              -26.4
            ],
            [
              16.35,
              -32.55
            ]
          ]
        ]
      }
    },
    {
      "type": "Feature",
      "properties": {
        "name": "Western Cape",
        "code": "WC",
        "fill": "#0369a1"
      },
      "geometry": {
        "type": "Polygon",
        "coordinates": [
          [
            [
              17.8,
              -34.8
            ],
            [
              24.2,
              -34.8
            ],
            [
              24.2,
              -31
            ],
            [
              17.8,
              -31
            ],
            [
              17.8,
              -34.8
            ]
          ]
        ]
      }
    },
    {
      "type": "Feature",
      "properties": {
        "name": "Eastern Cape",
        "code": "EC",
        "fill": "#7c3aed"
      },
      "geometry": {
        "type": "Polygon",
        "coordinates": [
          [
            [
              22.5,
              -34.2
            ],
            [
              30.2,
              -34.2
            ],
            [
              30.2,
              -30
            ],
            [
              22.5,
              -30
            ],
            [
              22.5,
              -34.2
            ]
          ]
        ]
      }
    },
    {
      "type": "Feature",
      "properties": {
        "name": "Free State",
        "code": "FS",
        "fill": "#c2410c"
      },
      "geometry": {
        "type": "Polygon",
        "coordinates": [
          [
            [
              24.3,
              -30.7
            ],
            [
              29.8,
              -30.7
            ],
            [
              29.8,
              -26.6
            ],
            [
              24.3,
              -26.6
            ],
            [
              24.3,
              -30.7
            ]
          ]
        ]
      }
    },
    {
      "type": "Feature",
      "properties": {
        "name": "Gauteng",
        "code": "GP",
        "fill": "#be123c"
      },
      "geometry": {
        "type": "Polygon",
        "coordinates": [
          [
            [
              27.6,
              -26.7
            ],
            [
              28.6,
              -26.7
            ],
            [
              28.6,
              -25.6
            ],
            [
              27.6,
              -25.6
            ],
            [
              27.6,
              -26.7
            ]
          ]
        ]
      }
    },
    {
      "type": "Feature",
      "properties": {
        "name": "KwaZulu-Natal",
        "code": "KZN",
        "fill": "#0f766e"
      },
      "geometry": {
        "type": "Polygon",
        "coordinates": [
          [
            [
              28.8,
              -31.2
            ],
            [
              32.9,
              -31.2
            ],
            [
              32.9,
              -26.8
            ],
            [
              28.8,
              -26.8
            ],
            [
              28.8,
              -31.2
            ]
          ]
        ]
      }
    },
    {
      "type": "Feature",
      "properties": {
        "name": "Limpopo",
        "code": "LP",
        "fill": "#15803d"
      },
      "geometry": {
        "type": "Polygon",
        "coordinates": [
          [
            [
              26.5,
              -25.5
            ],
            [
              31.9,
              -25.5
            ],
            [
              31.9,
              -22.1
            ],
            [
              26.5,
              -22.1
            ],
            [
              26.5,
              -25.5
            ]
          ]
        ]
      }
    },
    {
      "type": "Feature",
      "properties": {
        "name": "Mpumalanga",
        "code": "MP",
        "fill": "#a16207"
      },
      "geometry": {
        "type": "Polygon",
        "coordinates": [
          [
            [
              28.5,
              -27.2
            ],
            [
              32.1,
              -27.2
            ],
            [
              32.1,
              -24
            ],
            [
              28.5,
              -24
            ],
            [
              28.5,
              -27.2
            ]
          ]
        ]
      }
    },
    {
      "type": "Feature",
      "properties": {
        "name": "North West",
        "code": "NW",
        "fill": "#1d4ed8"
      },
      "geometry": {
        "type": "Polygon",
        "coordinates": [
          [
            [
              22.5,
              -28.2
            ],
            [
              28.3,
              -28.2
            ],
            [
              28.3,
              -24.6
            ],
            [
              22.5,
              -24.6
            ],
            [
              22.5,
              -28.2
            ]
          ]
        ]
      }
    }
  ]
}